{
  "type": "FeatureCollection",
  "features": [
    {
      "type": "Feature",
      "properties": {
        "norad_id": 41772,
        "name": "SKYSAT-C5",
        "group": "resource",
        "lat": -40.582108796656044,
        "lon": 36.476810707321626,
        "alt_km": 467.597283281797,
        "timestamp": "2025-12-12T14:39:17.629185+00:00",
        "meta_object_name": "SKYSAT-C5",
        "meta_object_id": "2016-058C",
        "meta_epoch": "2025-12-11T13:47:56.889600",
        "meta_mean_motion": 15.34906129,
        "meta_eccentricity": 4.67e-05,
        "meta_inclination": 97.0751,
        "meta_ra_of_asc_node": 29.3759,
        "meta_arg_of_pericenter": 257.3192,
        "meta_mean_anomaly": 102.8,
        "meta_ephemeris_type": 0,
        "meta_classification_type": "U",
        "meta_norad_cat_id": 41772,
        "meta_element_set_no": 999,
        "meta_rev_at_epoch": 51498,
        "meta_bstar": 0.00046261,
        "meta_mean_motion_dot": 0.00015598,
        "meta_mean_motion_ddot": 0,
        "tle_line1": "1 41772U 16058C   25345.57496400  .00015598  00000+0  46261-3 0  9994",
        "tle_line2": "2 41772  97.0751  29.3759 0000467 257.3192 102.8000 15.34906129514981"
      },
      "geometry": {
        "type": "Point",
        "coordinates": [
          36.476810707321626,
          -40.582108796656044
        ]
      }
    },
    {
      "type": "Feature",
      "properties": {
        "norad_id": 41773,
        "name": "SKYSAT-C2",
        "group": "resource",
        "lat": -30.15707497443285,
        "lon": 15.258506723363128,
        "alt_km": 458.997345147739,
        "timestamp": "2025-12-12T14:39:17.629194+00:00",
        "meta_object_name": "SKYSAT-C2",
        "meta_object_id": "2016-058D",
        "meta_epoch": "2025-12-12T00:43:35.830848",
        "meta_mean_motion": 15.37243964,
        "meta_eccentricity": 0.0004321,
        "meta_inclination": 97.0369,
        "meta_ra_of_asc_node": 10.587,
        "meta_arg_of_pericenter": 36.2464,
        "meta_mean_anomaly": 323.9073,
        "meta_ephemeris_type": 0,
        "meta_classification_type": "U",
        "meta_norad_cat_id": 41773,
        "meta_element_set_no": 999,
        "meta_rev_at_epoch": 51625,
        "meta_bstar": 0.00047659,
        "meta_mean_motion_dot": 0.00017332,
        "meta_mean_motion_ddot": 0,
        "tle_line1": "1 41773U 16058D   25346.03027582  .00017332  00000+0  47659-3 0  9998",
        "tle_line2": "2 41773  97.0369  10.5870 0004321  36.2464 323.9073 15.37243964516254"
      },
      "geometry": {
        "type": "Point",
        "coordinates": [
          15.258506723363128,
          -30.15707497443285
        ]
      }
    },
    {
      "type": "Feature",
      "properties": {
        "norad_id": 41774,
        "name": "SKYSAT-C3",
        "group": "resource",
        "lat": 24.632756776791496,
        "lon": -156.44026061506466,
        "alt_km": 431.92502500617775,
        "timestamp": "2025-12-12T14:39:17.629203+00:00",
        "meta_object_name": "SKYSAT-C3",
        "meta_object_id": "2016-058E",
        "meta_epoch": "2025-12-12T01:32:43.071360",
        "meta_mean_motion": 15.44357014,
        "meta_eccentricity": 0.00016227,
        "meta_inclination": 96.9305,
        "meta_ra_of_asc_node": 19.8415,
        "meta_arg_of_pericenter": 107.5379,
        "meta_mean_anomaly": 252.6048,
        "meta_ephemeris_type": 0,
        "meta_classification_type": "U",
        "meta_norad_cat_id": 41774,
        "meta_element_set_no": 999,
        "meta_rev_at_epoch": 51715,
        "meta_bstar": 0.00054672741,
        "meta_mean_motion_dot": 0.00025186,
        "meta_mean_motion_ddot": 0,
        "tle_line1": "1 41774U 16058E   25346.06438740  .00025186  00000+0  54673-3 0  9994",
        "tle_line2": "2 41774  96.9305  19.8415 0001622 107.5379 252.6048 15.44357014517158"
      },
      "geometry": {
        "type": "Point",
        "coordinates": [
          -156.44026061506466,
          24.632756776791496
        ]
      }
    },
    {
      "type": "Feature",
      "properties": {
        "norad_id": 41785,
        "name": "ALSAT 1B",
        "group": "resource",
        "lat": 46.35020249595829,
        "lon": -9.835861609541158,
        "alt_km": 646.2241971011917,
        "timestamp": "2025-12-12T14:39:17.629212+00:00",
        "meta_object_name": "ALSAT 1B",
        "meta_object_id": "2016-059C",
        "meta_epoch": "2025-12-12T04:39:16.344288",
        "meta_mean_motion": 14.72073762,
        "meta_eccentricity": 0.00107062,
        "meta_inclination": 97.7817,
        "meta_ra_of_asc_node": 358.0072,
        "meta_arg_of_pericenter": 104.5339,
        "meta_mean_anomaly": 255.7057,
        "meta_ephemeris_type": 0,
        "meta_classification_type": "U",
        "meta_norad_cat_id": 41785,
        "meta_element_set_no": 999,
        "meta_rev_at_epoch": 49306,
        "meta_bstar": 0.00010393317,
        "meta_mean_motion_dot": 6.07e-06,
        "meta_mean_motion_ddot": 0,
        "tle_line1": "1 41785U 16059C   25346.19393917  .00000607  00000+0  10393-3 0  9999",
        "tle_line2": "2 41785  97.7817 358.0072 0010706 104.5339 255.7057 14.72073762493062"
      },
      "geometry": {
        "type": "Point",
        "coordinates": [
          -9.835861609541158,
          46.35020249595829
        ]
      }
    },
    {
      "type": "Feature",
      "properties": {
        "norad_id": 41787,
        "name": "PATHFINDER 1",
        "group": "resource",
        "lat": 51.12157944450599,
        "lon": 179.1963706492366,
        "alt_km": 650.3494927289703,
        "timestamp": "2025-12-12T14:39:17.629221+00:00",
        "meta_object_name": "PATHFINDER 1",
        "meta_object_id": "2016-059E",
        "meta_epoch": "2025-12-11T23:20:45.576672",
        "meta_mean_motion": 14.67319027,
        "meta_eccentricity": 0.0030047,
        "meta_inclination": 97.8139,
        "meta_ra_of_asc_node": 348.7819,
        "meta_arg_of_pericenter": 83.5355,
        "meta_mean_anomaly": 276.927,
        "meta_ephemeris_type": 0,
        "meta_classification_type": "U",
        "meta_norad_cat_id": 41787,
        "meta_element_set_no": 999,
        "meta_rev_at_epoch": 49225,
        "meta_bstar": 0.0002355,
        "meta_mean_motion_dot": 1.291e-05,
        "meta_mean_motion_ddot": 0,
        "tle_line1": "1 41787U 16059E   25345.97274973  .00001291  00000+0  23550-3 0  9995",
        "tle_line2": "2 41787  97.8139 348.7819 0030047  83.5355 276.9270 14.67319027492254"
      },
      "geometry": {
        "type": "Point",
        "coordinates": [
          179.1963706492366,
          51.12157944450599
        ]
      }
    },
    {
      "type": "Feature",
      "properties": {
        "norad_id": 41790,
        "name": "SCATSAT 1",
        "group": "resource",
        "lat": 63.81219175109347,
        "lon": -119.78683299726744,
        "alt_km": 588.088207951364,
        "timestamp": "2025-12-12T14:39:17.629230+00:00",
        "meta_object_name": "SCATSAT 1",
        "meta_object_id": "2016-059H",
        "meta_epoch": "2025-12-12T02:46:20.071776",
        "meta_mean_motion": 14.78933776,
        "meta_eccentricity": 0.00562429,
        "meta_inclination": 98.1465,
        "meta_ra_of_asc_node": 42.7779,
        "meta_arg_of_pericenter": 129.9634,
        "meta_mean_anomaly": 230.6536,
        "meta_ephemeris_type": 0,
        "meta_classification_type": "U",
        "meta_norad_cat_id": 41790,
        "meta_element_set_no": 999,
        "meta_rev_at_epoch": 7393,
        "meta_bstar": 0.0003719498,
        "meta_mean_motion_dot": 2.761e-05,
        "meta_mean_motion_ddot": 0,
        "tle_line1": "1 41790U 16059H   25346.11551009  .00002761  00000+0  37195-3 0  9997",
        "tle_line2": "2 41790  98.1465  42.7779 0056242 129.9634 230.6536 14.78933776 73937"
      },
      "geometry": {
        "type": "Point",
        "coordinates": [
          -119.78683299726744,
          63.81219175109347
        ]
      }
    },
    {
      "type": "Feature",
      "properties": {
        "norad_id": 41875,
        "name": "GOKTURK 1A",
        "group": "resource",
        "lat": -26.99982077586534,
        "lon": 54.79395249568737,
        "alt_km": 690.5312901025573,
        "timestamp": "2025-12-12T14:39:17.629239+00:00",
        "meta_object_name": "GOKTURK 1A",
        "meta_object_id": "2016-073A",
        "meta_epoch": "2025-12-12T07:08:38.330304",
        "meta_mean_motion": 14.62779756,
        "meta_eccentricity": 0.00012417,
        "meta_inclination": 98.1423,
        "meta_ra_of_asc_node": 238.6686,
        "meta_arg_of_pericenter": 77.2028,
        "meta_mean_anomaly": 282.9313,
        "meta_ephemeris_type": 0,
        "meta_classification_type": "U",
        "meta_norad_cat_id": 41875,
        "meta_element_set_no": 999,
        "meta_rev_at_epoch": 48150,
        "meta_bstar": 0.0002289001,
        "meta_mean_motion_dot": 1.121e-05,
        "meta_mean_motion_ddot": 0,
        "tle_line1": "1 41875U 16073A   25346.29766586  .00001121  00000+0  22890-3 0  9999",
        "tle_line2": "2 41875  98.1423 238.6686 0001241  77.2028 282.9313 14.62779756481507"
      },
      "geometry": {
        "type": "Point",
        "coordinates": [
          54.79395249568737,
          -26.99982077586534
        ]
      }
    }
  ]
}